STARLINK-30335          
1 57710U 23129N   26068.15953258  .00001086  00000+0  50161-4 0  9998
2 57710  42.9975 120.7118 0001272 246.3982 113.6736 15.26729078140609
FLOCK 4G-25             
1 62646U 25009AP  26068.74572546  .00010373  00000+0  38902-3 0  9990
2 62646  97.4049 151.4141 0000828 316.3151  43.8023 15.27424196 63734
